CTC1_L_00363016-03
1 10062U 25485PN  26075.70033565  .00000000  00000+0  00000-0 0  9991
2 10062  45.0000 180.0000 0000000   0.0000   0.0000 13.69880518    19
CTC1_L_00363016-04
1 10063U 25449GI  26075.70033565  .00000000  00000+0  00000-0 0  9992
2 10063  45.0000 180.0000 0000000   0.0000  90.0000 13.69880518    19
CTC1_L_00363017-01
1 10064U 24052DP  26075.70033565  .00000000  00000+0  00000-0 0  9992
2 10064  45.0000 192.0000 0000000   0.0000 192.0000 13.69880518    16
CTC1_L_00363017-02
1 10065U 23375QF  26075.70033565  .00000000  00000+0  00000-0 0  9990
2 10065  45.0000 192.0000 0000000   0.0000 282.0000 13.69880518    17
CTC1_L_00363017-03
1 10066U 25288PE  26075.70033565  .00000000  00000+0  00000-0 0  9996
2 10066  45.0000 192.0000 0000000   0.0000  12.0000 13.69880518    19
CTC1_L_00363017-04
1 10067U 24200SE  26075.70033565  .00000000  00000+0  00000-0 0  9990
2 10067  45.0000 192.0000 0000000   0.0000 102.0000 13.69880518    10
CTC1_L_00363018-01
1 10068U 23321ZS  26075.70033565  .00000000  00000+0  00000-0 0  9994
2 10068  45.0000 204.0000 0000000   0.0000 204.0000 13.69880518    18
CTC1_L_00363018-02
1 10069U 22167BO  26075.70033565  .00000000  00000+0  00000-0 0  9992
2 10069  45.0000 204.0000 0000000   0.0000 294.0000 13.69880518    18
CTC1_L_00363018-03
1 10070U 24956RT  26075.70033565  .00000000  00000+0  00000-0 0  9992
2 10070  45.0000 204.0000 0000000   0.0000  24.0000 13.69880518    11
CTC1_L_00363018-04
1 10071U 23895QL  26075.70033565  .00000000  00000+0  00000-0 0  9994
2 10071  45.0000 204.0000 0000000   0.0000 114.0000 13.69880518    12
CTC1_L_00363019-01
1 10072U 23640YM  26075.70033565  .00000000  00000+0  00000-0 0  9993
2 10072  45.0000 216.0000 0000000   0.0000 216.0000 13.69880518    19
CTC1_L_00363019-02
1 10073U 25376OD  26075.70033565  .00000000  00000+0  00000-0 0  9992
2 10073  45.0000 216.0000 0000000   0.0000 306.0000 13.69880518    10
CTC1_L_00363019-03
1 10074U 22571AH  26075.70033565  .00000000  00000+0  00000-0 0  9997
2 10074  45.0000 216.0000 0000000   0.0000  36.0000 13.69880518    11
CTC1_L_00363019-04
1 10075U 23301T   26075.70033565  .00000000  00000+0  00000-0 0  9990
2 10075  45.0000 216.0000 0000000   0.0000 126.0000 13.69880518    12
CTC1_L_00363020-01
1 10076U 22280ZX  26075.70033565  .00000000  00000+0  00000-0 0  9996
2 10076  45.0000 228.0000 0000000   0.0000 228.0000 13.69880518    19
CTC1_L_00363020-02
1 10077U 26748PH  26075.70033565  .00000000  00000+0  00000-0 0  9990
2 10077  45.0000 228.0000 0000000   0.0000 318.0000 13.69880518    10
CTC1_L_00363020-03
1 10078U 22492S   26075.70033565  .00000000  00000+0  00000-0 0  9993
2 10078  45.0000 228.0000 0000000   0.0000  48.0000 13.69880518    11
CTC1_L_00363020-04
1 10079U 24180XM  26075.70033565  .00000000  00000+0  00000-0 0  9990
2 10079  45.0000 228.0000 0000000   0.0000 138.0000 13.69880518    12
CTC1_L_00363021-01
1 10080U 22506S   26075.70033565  .00000000  00000+0  00000-0 0  9992
2 10080  45.0000 240.0000 0000000   0.0000 240.0000 13.69880518    12
CTC1_L_00363021-02
1 10081U 22650MI  26075.70033565  .00000000  00000+0  00000-0 0  9993
2 10081  45.0000 240.0000 0000000   0.0000 330.0000 13.69880518    13
CTC1_L_00363021-03
1 10082U 22841VJ  26075.70033565  .00000000  00000+0  00000-0 0  9996
2 10082  45.0000 240.0000 0000000   0.0000  60.0000 13.69880518    14
CTC1_L_00363021-04
1 10083U 26347BB  26075.70033565  .00000000  00000+0  00000-0 0  9992
2 10083  45.0000 240.0000 0000000   0.0000 150.0000 13.69880518    15
CTC1_L_00363022-01
1 10084U 25686NO  26075.70033565  .00000000  00000+0  00000-0 0  9998
2 10084  45.0000 252.0000 0000000   0.0000 252.0000 13.69880518    12
CTC1_L_00363022-02
1 10085U 26142FE  26075.70033565  .00000000  00000+0  00000-0 0  9997
2 10085  45.0000 252.0000 0000000   0.0000 342.0000 13.69880518    13
CTC1_L_00363022-03
1 10086U 25753WK  26075.70033565  .00000000  00000+0  00000-0 0  9995
2 10086  45.0000 252.0000 0000000   0.0000  72.0000 13.69880518    14
CTC1_L_00363022-04
1 10087U 25119KQ  26075.70033565  .00000000  00000+0  00000-0 0  9992
2 10087  45.0000 252.0000 0000000   0.0000 162.0000 13.69880518    15
CTC1_L_00363023-01
1 10088U 25671PI  26075.70033565  .00000000  00000+0  00000-0 0  9996
2 10088  45.0000 264.0000 0000000   0.0000 264.0000 13.69880518    12
CTC1_L_00363023-02
1 10089U 25803GL  26075.70033565  .00000000  00000+0  00000-0 0  9994
2 10089  45.0000 264.0000 0000000   0.0000 354.0000 13.69880518    13
CTC1_L_00363023-03
1 10090U 24877AV  26075.70033565  .00000000  00000+0  00000-0 0  9996
2 10090  45.0000 264.0000 0000000   0.0000  84.0000 13.69880518    15
CTC1_L_00363023-04
1 10091U 26066MT  26075.70033565  .00000000  00000+0  00000-0 0  9999
2 10091  45.0000 264.0000 0000000   0.0000 174.0000 13.69880518    16
CTC1_L_00363024-01
1 10092U 23450XB  26075.70033565  .00000000  00000+0  00000-0 0  9994
2 10092  45.0000 276.0000 0000000   0.0000 276.0000 13.69880518    13
CTC1_L_00363024-02
1 10093U 26457SW  26075.70033565  .00000000  00000+0  00000-0 0  9995
2 10093  45.0000 276.0000 0000000   0.0000   6.0000 13.69880518    15
CTC1_L_00363024-03
1 10094U 25260KU  26075.70033565  .00000000  00000+0  00000-0 0  9997
2 10094  45.0000 276.0000 0000000   0.0000  96.0000 13.69880518    15
CTC1_L_00363024-04
1 10095U 26341LM  26075.70033565  .00000000  00000+0  00000-0 0  9999
2 10095  45.0000 276.0000 0000000   0.0000 186.0000 13.69880518    16
CTC1_L_00363025-01
1 10096U 26090RO  26075.70033565  .00000000  00000+0  00000-0 0  9991
2 10096  45.0000 288.0000 0000000   0.0000 288.0000 13.69880518    13
CTC1_L_00363025-02
1 10097U 23391FG  26075.70033565  .00000000  00000+0  00000-0 0  9993
2 10097  45.0000 288.0000 0000000   0.0000  18.0000 13.69880518    15
CTC1_L_00363025-03
1 10098U 24935FA  26075.70033565  .00000000  00000+0  00000-0 0  9999
2 10098  45.0000 288.0000 0000000   0.0000 108.0000 13.69880518    16
CTC1_L_00363025-04
1 10099U 23851OT  26075.70033565  .00000000  00000+0  00000-0 0  9996
2 10099  45.0000 288.0000 0000000   0.0000 198.0000 13.69880518    16
CTC1_L_00363026-01
1 10100U 25305LE  26075.70033565  .00000000  00000+0  00000-0 0  9995
2 10100  45.0000 300.0000 0000000   0.0000 300.0000 13.69880518    19
CTC1_L_00363026-02
1 10101U 22428AB  26075.70033565  .00000000  00000+0  00000-0 0  9999
2 10101  45.0000 300.0000 0000000   0.0000  30.0000 13.69880518    10
CTC1_L_00363026-03
1 10102U 24775IY  26075.70033565  .00000000  00000+0  00000-0 0  9997
2 10102  45.0000 300.0000 0000000   0.0000 120.0000 13.69880518    11
CTC1_L_00363026-04
1 10103U 22773YG  26075.70033565  .00000000  00000+0  00000-0 0  9994
2 10103  45.0000 300.0000 0000000   0.0000 210.0000 13.69880518    12
CTC1_L_00363027-01
1 10104U 22840VT  26075.70033565  .00000000  00000+0  00000-0 0  9990
2 10104  45.0000 312.0000 0000000   0.0000 312.0000 13.69880518    19
CTC1_L_00363027-02
1 10105U 26197ZT  26075.70033565  .00000000  00000+0  00000-0 0  9990
2 10105  45.0000 312.0000 0000000   0.0000  42.0000 13.69880518    10
CTC1_L_00363027-03
1 10106U 24743VS  26075.70033565  .00000000  00000+0  00000-0 0  9996
2 10106  45.0000 312.0000 0000000   0.0000 132.0000 13.69880518    11
CTC1_L_00363027-04
1 10107U 26955HQ  26075.70033565  .00000000  00000+0  00000-0 0  9994
2 10107  45.0000 312.0000 0000000   0.0000 222.0000 13.69880518    12
CTC1_L_00363028-01
1 10108U 24496JB  26075.70033565  .00000000  00000+0  00000-0 0  9993
2 10108  45.0000 324.0000 0000000   0.0000 324.0000 13.69880518    19
CTC1_L_00363028-02
1 10109U 22355SP  26075.70033565  .00000000  00000+0  00000-0 0  9996
2 10109  45.0000 324.0000 0000000   0.0000  54.0000 13.69880518    10
CTC1_L_00363028-03
1 10110U 23562VB  26075.70033565  .00000000  00000+0  00000-0 0  9999
2 10110  45.0000 324.0000 0000000   0.0000 144.0000 13.69880518    12
CTC1_L_00363028-04
1 10111U 22259AS  26075.70033565  .00000000  00000+0  00000-0 0  9992
2 10111  45.0000 324.0000 0000000   0.0000 234.0000 13.69880518    13
CTC1_L_00363029-01
1 10112U 26775UT  26075.70033565  .00000000  00000+0  00000-0 0  9990
2 10112  45.0000 336.0000 0000000   0.0000 336.0000 13.69880518    10
CTC1_L_00363029-02
1 10113U 22977PW  26075.70033565  .00000000  00000+0  00000-0 0  9991
2 10113  45.0000 336.0000 0000000   0.0000  66.0000 13.69880518    11
CTC1_L_00363029-03
1 10114U 25731QD  26075.70033565  .00000000  00000+0  00000-0 0  9993
2 10114  45.0000 336.0000 0000000   0.0000 156.0000 13.69880518    12
CTC1_L_00363029-04
1 10115U 25463XY  26075.70033565  .00000000  00000+0  00000-0 0  9996
2 10115  45.0000 336.0000 0000000   0.0000 246.0000 13.69880518    13
CTC1_L_00363030-01
1 10116U 26666JO  26075.70033565  .00000000  00000+0  00000-0 0  9993
2 10116  45.0000 348.0000 0000000   0.0000 348.0000 13.69880518    10
CTC1_L_00363030-02
1 10117U 22592ND  26075.70033565  .00000000  00000+0  00000-0 0  9998
2 10117  45.0000 348.0000 0000000   0.0000  78.0000 13.69880518    11
CTC1_L_00363030-03
1 10118U 24966RP  26075.70033565  .00000000  00000+0  00000-0 0  9996
2 10118  45.0000 348.0000 0000000   0.0000 168.0000 13.69880518    12
CTC1_L_00363030-04
1 10119U 23974PR  26075.70033565  .00000000  00000+0  00000-0 0  9995
2 10119  45.0000 348.0000 0000000   0.0000 258.0000 13.69880518    13
